{"type": "FeatureCollection", "features": [ {"type": "Feature", "properties": {"norad_id": 38817, "name": "FENGYUN 1C DEB", "group": "fengyun-1c-debris", "lat": -80.84598663384752, "lon": -80.45759007124654, "alt_km": 1243.205744548205, "timestamp": "2025-12-04T05:42:43.663080+00:00", "meta": {"OBJECT_NAME": "FENGYUN 1C DEB", "OBJECT_ID": "1999-025EVH", "EPOCH": "2025-12-03T10:41:28.355712", "MEAN_MOTION": 13.57640916, "ECCENTRICITY": 0.02907998, "INCLINATION": 98.6006, "RA_OF_ASC_NODE": 208.9365, "ARG_OF_PERICENTER": 68.5289, "MEAN_ANOMALY": 294.6598, "EPHEMERIS_TYPE": 0, "CLASSIFICATION_TYPE": "U", "NORAD_CAT_ID": 38817, "ELEMENT_SET_NO": 999, "REV_AT_EPOCH": 65708, "BSTAR": 0.0025283462, "MEAN_MOTION_DOT": 2.357e-05, "MEAN_MOTION_DDOT": 0}, "tle": {"line1": "1 38817U 99025EVH 25337.44546708  .00002357  00000+0  25283-2 0  9998", "line2": "2 38817  98.6006 208.9365 0290799  68.5289 294.6598 13.57640916657086"}}, "geometry": {"type": "Point", "coordinates": [-80.45759007124654, -80.84598663384752]}}, {"type": "Feature", "properties": {"norad_id": 38818, "name": "FENGYUN 1C DEB", "group": "fengyun-1c-debris", "lat": -36.017566866284504, "lon": -151.2923651242935, "alt_km": 768.0617792615376, "timestamp": "2025-12-04T05:42:43.663091+00:00", "meta": {"OBJECT_NAME": "FENGYUN 1C DEB", "OBJECT_ID": "1999-025EVJ", "EPOCH": "2025-11-27T09:30:24.153696", "MEAN_MOTION": 14.39418793, "ECCENTRICITY": 0.00885007, "INCLINATION": 98.3025, "RA_OF_ASC_NODE": 28.1739, "ARG_OF_PERICENTER": 145.1281, "MEAN_ANOMALY": 276.4662, "EPHEMERIS_TYPE": 0, "CLASSIFICATION_TYPE": "U", "NORAD_CAT_ID": 38818, "ELEMENT_SET_NO": 999, "REV_AT_EPOCH": 67027, "BSTAR": 0.00050962146, "MEAN_MOTION_DOT": 1.618e-05, "MEAN_MOTION_DDOT": 0}, "tle": {"line1": "1 38818U 99025EVJ 25331.39611289  .00001618  00000+0  50962-3 0  9996", "line2": "2 38818  98.3025  28.1739 0088500 145.1281 276.4662 14.39418793670274"}}, "geometry": {"type": "Point", "coordinates": [-151.2923651242935, -36.017566866284504]}}, {"type": "Feature", "properties": {"norad_id": 38819, "name": "FENGYUN 1C DEB", "group": "fengyun-1c-debris", "lat": 68.68744472944059, "lon": -51.5924302744117, "alt_km": 869.6326882227931, "timestamp": "2025-12-04T05:42:43.663101+00:00", "meta": {"OBJECT_NAME": "FENGYUN 1C DEB", "OBJECT_ID": "1999-025EVK", "EPOCH": "2025-11-30T19:03:47.354112", "MEAN_MOTION": 14.19336653, "ECCENTRICITY": 0.00792799, "INCLINATION": 98.6177, "RA_OF_ASC_NODE": 327.9316, "ARG_OF_PERICENTER": 229.2227, "MEAN_ANOMALY": 255.6081, "EPHEMERIS_TYPE": 0, "CLASSIFICATION_TYPE": "U", "NORAD_CAT_ID": 38819, "ELEMENT_SET_NO": 999, "REV_AT_EPOCH": 63308, "BSTAR": 0.00044451105, "MEAN_MOTION_DOT": 9.2e-06, "MEAN_MOTION_DDOT": 0}, "tle": {"line1": "1 38819U 99025EVK 25334.79429808  .00000920  00000+0  44451-3 0  9999", "line2": "2 38819  98.6177 327.9316 0079279 229.2227 255.6081 14.19336653633088"}}, "geometry": {"type": "Point", "coordinates": [-51.5924302744117, 68.68744472944059]}}, {"type": "Feature", "properties": {"norad_id": 38824, "name": "FENGYUN 1C DEB", "group": "fengyun-1c-debris", "lat": -76.86987903482478, "lon": -113.12855325846668, "alt_km": 796.3307272626671, "timestamp": "2025-12-04T05:42:43.663111+00:00", "meta": {"OBJECT_NAME": "FENGYUN 1C DEB", "OBJECT_ID": "1999-025EVQ", "EPOCH": "2025-11-20T14:24:21.461760", "MEAN_MOTION": 14.13875773, "ECCENTRICITY": 0.00960414, "INCLINATION": 99.2955, "RA_OF_ASC_NODE": 97.2934, "ARG_OF_PERICENTER": 263.2679, "MEAN_ANOMALY": 95.7556, "EPHEMERIS_TYPE": 0, "CLASSIFICATION_TYPE": "U", "NORAD_CAT_ID": 38824, "ELEMENT_SET_NO": 999, "REV_AT_EPOCH": 68824, "BSTAR": 0.0027703315, "MEAN_MOTION_DOT": 5.443e-05, "MEAN_MOTION_DDOT": 0}, "tle": {"line1": "1 38824U 99025EVQ 25324.60024840  .00005443  00000+0  27703-2 0  9996", "line2": "2 38824  99.2955  97.2934 0096041 263.2679  95.7556 14.13875773688246"}}, "geometry": {"type": "Point", "coordinates": [-113.12855325846668, -76.86987903482478]}}, {"type": "Feature", "properties": {"norad_id": 38827, "name": "FENGYUN 1C DEB", "group": "fengyun-1c-debris", "lat": -42.013190579418044, "lon": 9.068062895586861, "alt_km": 643.2733070053755, "timestamp": "2025-12-04T05:42:43.663129+00:00", "meta": {"OBJECT_NAME": "FENGYUN 1C DEB", "OBJECT_ID": "1999-025EVT", "EPOCH": "2025-12-02T06:58:24.042720", "MEAN_MOTION": 14.3273979, "ECCENTRICITY": 0.02171, "INCLINATION": 98.388, "RA_OF_ASC_NODE": 359.5433, "ARG_OF_PERICENTER": 344.0092, "MEAN_ANOMALY": 15.4311, "EPHEMERIS_TYPE": 0, "CLASSIFICATION_TYPE": "U", "NORAD_CAT_ID": 38827, "ELEMENT_SET_NO": 999, "REV_AT_EPOCH": 60910, "BSTAR": 0.0011390004, "MEAN_MOTION_DOT": 3.982e-05, "MEAN_MOTION_DDOT": 0}, "tle": {"line1": "1 38827U 99025EVT 25336.29055605  .00003982  00000+0  11390-2 0  9991", "line2": "2 38827  98.3880 359.5433 0217100 344.0092  15.4311 14.32739790609107"}}, "geometry": {"type": "Point", "coordinates": [9.068062895586861, -42.013190579418044]}}, {"type": "Feature", "properties": {"norad_id": 38829, "name": "FENGYUN 1C DEB", "group": "fengyun-1c-debris", "lat": -76.30966504540933, "lon": 135.2381511542262, "alt_km": 896.7033126704055, "timestamp": "2025-12-04T05:42:43.663150+00:00", "meta": {"OBJECT_NAME": "FENGYUN 1C DEB", "OBJECT_ID": "1999-025EVV", "EPOCH": "2025-11-28T12:09:37.579680", "MEAN_MOTION": 14.09173473, "ECCENTRICITY": 0.00415826, "INCLINATION": 98.7503, "RA_OF_ASC_NODE": 348.8898, "ARG_OF_PERICENTER": 70.4663, "MEAN_ANOMALY": 290.0991, "EPHEMERIS_TYPE": 0, "CLASSIFICATION_TYPE": "U", "NORAD_CAT_ID": 38829, "ELEMENT_SET_NO": 999, "REV_AT_EPOCH": 63932, "BSTAR": 0.00056587384, "MEAN_MOTION_DOT": 9.49e-06, "MEAN_MOTION_DDOT": 0}, "tle": {"line1": "1 38829U 99025EVV 25332.50668495  .00000949  00000+0  56587-3 0  9998", "line2": "2 38829  98.7503 348.8898 0041582  70.4663 290.0991 14.09173473639320"}}, "geometry": {"type": "Point", "coordinates": [135.2381511542262, -76.30966504540933]}}, {"type": "Feature", "properties": {"norad_id": 38832, "name": "FENGYUN 1C DEB", "group": "fengyun-1c-debris", "lat": 56.64542195695456, "lon": -143.2037993382018, "alt_km": 837.8731365446683, "timestamp": "2025-12-04T05:42:43.663167+00:00", "meta": {"OBJECT_NAME": "FENGYUN 1C DEB", "OBJECT_ID": "1999-025EVY", "EPOCH": "2025-12-02T22:21:52.125984", "MEAN_MOTION": 14.04442466, "ECCENTRICITY": 0.00846241, "INCLINATION": 99.2674, "RA_OF_ASC_NODE": 21.1018, "ARG_OF_PERICENTER": 70.1542, "MEAN_ANOMALY": 290.8721, "EPHEMERIS_TYPE": 0, "CLASSIFICATION_TYPE": "U", "NORAD_CAT_ID": 38832, "ELEMENT_SET_NO": 999, "REV_AT_EPOCH": 63620, "BSTAR": 0.0013226445, "MEAN_MOTION_DOT": 2.131e-05, "MEAN_MOTION_DDOT": 0}, "tle": {"line1": "1 38832U 99025EVY 25336.93185331  .00002131  00000+0  13226-2 0  9993", "line2": "2 38832  99.2674  21.1018 0084624  70.1542 290.8721 14.04442466636200"}}, "geometry": {"type": "Point", "coordinates": [-143.2037993382018, 56.64542195695456]}}, {"type": "Feature", "properties": {"norad_id": 39536, "name": "FENGYUN 1C DEB", "group": "fengyun-1c-debris", "lat": 9.40336543288646, "lon": -160.31752373233903, "alt_km": 1054.6524944297144, "timestamp": "2025-12-04T05:42:43.663178+00:00", "meta": {"OBJECT_NAME": "FENGYUN 1C DEB", "OBJECT_ID": "1999-025EWD", "EPOCH": "2025-11-07T21:44:34.572480", "MEAN_MOTION": 13.69653557, "ECCENTRICITY": 0.02407275, "INCLINATION": 99.7905, "RA_OF_ASC_NODE": 351.2614, "ARG_OF_PERICENTER": 346.3194, "MEAN_ANOMALY": 13.1503, "EPHEMERIS_TYPE": 0, "CLASSIFICATION_TYPE": "U", "NORAD_CAT_ID": 39536, "ELEMENT_SET_NO": 999, "REV_AT_EPOCH": 61287, "BSTAR": 0.0015441724, "MEAN_MOTION_DOT": 1.606e-05, "MEAN_MOTION_DDOT": 0}, "tle": {"line1": "1 39536U 99025EWD 25311.90595570  .00001606  00000+0  15442-2 0  9993", "line2": "2 39536  99.7905 351.2614 0240727 346.3194  13.1503 13.69653557612878"}}, "geometry": {"type": "Point", "coordinates": [-160.31752373233903, 9.40336543288646]}}, {"type": "Feature", "properties": {"norad_id": 39537, "name": "FENGYUN 1C DEB", "group": "fengyun-1c-debris", "lat": -45.80390589774697, "lon": -65.34824427908094, "alt_km": 1051.0732034896046, "timestamp": "2025-12-04T05:42:43.663188+00:00", "meta": {"OBJECT_NAME": "FENGYUN 1C DEB", "OBJECT_ID": "1999-025EWE", "EPOCH": "2025-11-24T15:36:49.218624", "MEAN_MOTION": 13.84100529, "ECCENTRICITY": 0.01777289, "INCLINATION": 99.1539, "RA_OF_ASC_NODE": 114.8537, "ARG_OF_PERICENTER": 29.7742, "MEAN_ANOMALY": 331.3386, "EPHEMERIS_TYPE": 0, "CLASSIFICATION_TYPE": "U", "NORAD_CAT_ID": 39537, "ELEMENT_SET_NO": 999, "REV_AT_EPOCH": 59006, "BSTAR": 0.0012783634, "MEAN_MOTION_DOT": 1.566e-05, "MEAN_MOTION_DDOT": 0}, "tle": {"line1": "1 39537U 99025EWE 25328.65056966  .00001566  00000+0  12784-2 0  9996", "line2": "2 39537  99.1539 114.8537 0177728  29.7742 331.3386 13.84100529590067"}}, "geometry": {"type": "Point", "coordinates": [-65.34824427908094, -45.80390589774697]}}, {"type": "Feature", "properties": {"norad_id": 39541, "name": "FENGYUN 1C DEB", "group": "fengyun-1c-debris", "lat": -74.50555665808302, "lon": 53.951446483995795, "alt_km": 883.1476153958647, "timestamp": "2025-12-04T05:42:43.663200+00:00", "meta": {"OBJECT_NAME": "FENGYUN 1C DEB", "OBJECT_ID": "1999-025EWJ", "EPOCH": "2025-11-26T08:43:14.269440", "MEAN_MOTION": 14.20329557, "ECCENTRICITY": 0.00721468, "INCLINATION": 98.6819, "RA_OF_ASC_NODE": 12.7746, "ARG_OF_PERICENTER": 119.8468, "MEAN_ANOMALY": 240.9905, "EPHEMERIS_TYPE": 0, "CLASSIFICATION_TYPE": "U", "NORAD_CAT_ID": 39541, "ELEMENT_SET_NO": 999, "REV_AT_EPOCH": 58770, "BSTAR": 0.00069059031, "MEAN_MOTION_DOT": 1.475e-05, "MEAN_MOTION_DDOT": 0}, "tle": {"line1": "1 39541U 99025EWJ 25330.36335960  .00001475  00000+0  69059-3 0  9993", "line2": "2 39541  98.6819  12.7746 0072146 119.8468 240.9905 14.20329557587703"}}, "geometry": {"type": "Point", "coordinates": [53.951446483995795, -74.50555665808302]}}]}